{
  "type": "FeatureCollection",
  "features": [
    {
      "type": "Feature",
      "properties": {
        "norad_id": 58701,
        "name": "TIANMU-1 16",
        "group": "weather",
        "lat": -65.49360525773781,
        "lon": -174.05159923061086,
        "alt_km": 496.61444521399153,
        "timestamp": "2025-12-14T09:36:22.678062+00:00",
        "meta_object_name": "TIANMU-1 16",
        "meta_object_id": "2024-004B",
        "meta_epoch": "2025-12-13T16:34:08.607360",
        "meta_mean_motion": 15.24450479,
        "meta_eccentricity": 0.00044343,
        "meta_inclination": 97.4569,
        "meta_ra_of_asc_node": 168.5443,
        "meta_arg_of_pericenter": 292.4461,
        "meta_mean_anomaly": 67.6307,
        "meta_ephemeris_type": 0,
        "meta_classification_type": "U",
        "meta_norad_cat_id": 58701,
        "meta_element_set_no": 999,
        "meta_rev_at_epoch": 10749,
        "meta_bstar": 0.00033415638,
        "meta_mean_motion_dot": 8.135e-05,
        "meta_mean_motion_ddot": 0,
        "tle_line1": "1 58701U 24004B   25347.69037740  .00008135  00000+0  33416-3 0  9994",
        "tle_line2": "2 58701  97.4569 168.5443 0004434 292.4461  67.6307 15.24450479107498"
      },
      "geometry": {
        "type": "Point",
        "coordinates": [
          -174.05159923061086,
          -65.49360525773781
        ]
      }
    },
    {
      "type": "Feature",
      "properties": {
        "norad_id": 58702,
        "name": "TIANMU-1 17",
        "group": "weather",
        "lat": 17.98681016920615,
        "lon": 167.22320658186916,
        "alt_km": 492.51928295201833,
        "timestamp": "2025-12-14T09:36:22.678072+00:00",
        "meta_object_name": "TIANMU-1 17",
        "meta_object_id": "2024-004C",
        "meta_epoch": "2025-12-13T16:11:55.349952",
        "meta_mean_motion": 15.24494076,
        "meta_eccentricity": 0.00036505,
        "meta_inclination": 97.4603,
        "meta_ra_of_asc_node": 168.9394,
        "meta_arg_of_pericenter": 296.0195,
        "meta_mean_anomaly": 64.0667,
        "meta_ephemeris_type": 0,
        "meta_classification_type": "U",
        "meta_norad_cat_id": 58702,
        "meta_element_set_no": 999,
        "meta_rev_at_epoch": 10748,
        "meta_bstar": 0.00034818166,
        "meta_mean_motion_dot": 8.49e-05,
        "meta_mean_motion_ddot": 0,
        "tle_line1": "1 58702U 24004C   25347.67494618  .00008490  00000+0  34818-3 0  9995",
        "tle_line2": "2 58702  97.4603 168.9394 0003650 296.0195  64.0667 15.24494076107480"
      },
      "geometry": {
        "type": "Point",
        "coordinates": [
          167.22320658186916,
          17.98681016920615
        ]
      }
    },
    {
      "type": "Feature",
      "properties": {
        "norad_id": 58703,
        "name": "TIANMU-1 18",
        "group": "weather",
        "lat": 68.98883391793534,
        "lon": 9.810179543518007,
        "alt_km": 487.6850703352593,
        "timestamp": "2025-12-14T09:36:22.678082+00:00",
        "meta_object_name": "TIANMU-1 18",
        "meta_object_id": "2024-004D",
        "meta_epoch": "2025-12-13T15:47:54.478752",
        "meta_mean_motion": 15.24480649,
        "meta_eccentricity": 0.00029966,
        "meta_inclination": 97.462,
        "meta_ra_of_asc_node": 169.1183,
        "meta_arg_of_pericenter": 296.1171,
        "meta_mean_anomaly": 63.9758,
        "meta_ephemeris_type": 0,
        "meta_classification_type": "U",
        "meta_norad_cat_id": 58703,
        "meta_element_set_no": 999,
        "meta_rev_at_epoch": 10748,
        "meta_bstar": 0.00034964346,
        "meta_mean_motion_dot": 8.522e-05,
        "meta_mean_motion_ddot": 0,
        "tle_line1": "1 58703U 24004D   25347.65826943  .00008522  00000+0  34964-3 0  9992",
        "tle_line2": "2 58703  97.4620 169.1183 0002996 296.1171  63.9758 15.24480649107486"
      },
      "geometry": {
        "type": "Point",
        "coordinates": [
          9.810179543518007,
          68.98883391793534
        ]
      }
    },
    {
      "type": "Feature",
      "properties": {
        "norad_id": 58990,
        "name": "INSAT-3DS",
        "group": "weather",
        "lat": -0.019809732945516096,
        "lon": -50.4995460176171,
        "alt_km": 35782.09657699848,
        "timestamp": "2025-12-14T09:36:22.678110+00:00",
        "meta_object_name": "INSAT-3DS",
        "meta_object_id": "2024-033A",
        "meta_epoch": "2025-12-13T15:33:08.678304",
        "meta_mean_motion": 1.00272556,
        "meta_eccentricity": 0.00012735,
        "meta_inclination": 0.0425,
        "meta_ra_of_asc_node": 134.3822,
        "meta_arg_of_pericenter": 130.0421,
        "meta_mean_anomaly": 133.5232,
        "meta_ephemeris_type": 0,
        "meta_classification_type": "U",
        "meta_norad_cat_id": 58990,
        "meta_element_set_no": 999,
        "meta_rev_at_epoch": 4520,
        "meta_bstar": 0,
        "meta_mean_motion_dot": -1.41e-06,
        "meta_mean_motion_ddot": 0,
        "tle_line1": "1 58990U 24033A   25347.64801711 -.00000141  00000+0  00000+0 0  9997",
        "tle_line2": "2 58990   0.0425 134.3822 0001273 130.0421 133.5232  1.00272556 45209"
      },
      "geometry": {
        "type": "Point",
        "coordinates": [
          -50.4995460176171,
          -0.019809732945516096
        ]
      }
    },
    {
      "type": "Feature",
      "properties": {
        "norad_id": 59051,
        "name": "METEOR-M2 4",
        "group": "weather",
        "lat": 34.721567382309196,
        "lon": -60.79145988068202,
        "alt_km": 811.1361319062189,
        "timestamp": "2025-12-14T09:36:22.678123+00:00",
        "meta_object_name": "METEOR-M2 4",
        "meta_object_id": "2024-039A",
        "meta_epoch": "2025-12-13T16:33:33.256800",
        "meta_mean_motion": 14.2240144,
        "meta_eccentricity": 0.00069907,
        "meta_inclination": 98.6766,
        "meta_ra_of_asc_node": 304.5839,
        "meta_arg_of_pericenter": 355.888,
        "meta_mean_anomaly": 4.2239,
        "meta_ephemeris_type": 0,
        "meta_classification_type": "U",
        "meta_norad_cat_id": 59051,
        "meta_element_set_no": 999,
        "meta_rev_at_epoch": 9289,
        "meta_bstar": 4.7897673e-05,
        "meta_mean_motion_dot": 6.3e-07,
        "meta_mean_motion_ddot": 0,
        "tle_line1": "1 59051U 24039A   25347.68996825  .00000063  00000+0  47898-4 0  9990",
        "tle_line2": "2 59051  98.6766 304.5839 0006990 355.8880   4.2239 14.22401440 92897"
      },
      "geometry": {
        "type": "Point",
        "coordinates": [
          -60.79145988068202,
          34.721567382309196
        ]
      }
    },
    {
      "type": "Feature",
      "properties": {
        "norad_id": 60133,
        "name": "GOES 19",
        "group": "weather",
        "lat": 0.0003490293123050567,
        "lon": 152.20351675388247,
        "alt_km": 35791.55291683937,
        "timestamp": "2025-12-14T09:36:22.678135+00:00",
        "meta_object_name": "GOES 19",
        "meta_object_id": "2024-119A",
        "meta_epoch": "2025-12-13T14:48:05.493600",
        "meta_mean_motion": 1.0027039,
        "meta_eccentricity": 0.00012385,
        "meta_inclination": 0.0038,
        "meta_ra_of_asc_node": 87.7577,
        "meta_arg_of_pericenter": 228.6539,
        "meta_mean_anomaly": 272.9654,
        "meta_ephemeris_type": 0,
        "meta_classification_type": "U",
        "meta_norad_cat_id": 60133,
        "meta_element_set_no": 999,
        "meta_rev_at_epoch": 510,
        "meta_bstar": 0,
        "meta_mean_motion_dot": -2.33e-06,
        "meta_mean_motion_ddot": 0,
        "tle_line1": "1 60133U 24119A   25347.61673025 -.00000233  00000+0  00000+0 0  9998",
        "tle_line2": "2 60133   0.0038  87.7577 0001238 228.6539 272.9654  1.00270390  5109"
      },
      "geometry": {
        "type": "Point",
        "coordinates": [
          152.20351675388247,
          0.0003490293123050567
        ]
      }
    },
    {
      "type": "Feature",
      "properties": {
        "norad_id": 65815,
        "name": "FENGYUN 3H",
        "group": "weather",
        "lat": -76.22104582438843,
        "lon": 69.53935818310484,
        "alt_km": 833.4242594276802,
        "timestamp": "2025-12-14T09:36:22.678146+00:00",
        "meta_object_name": "FENGYUN 3H",
        "meta_object_id": "2025-219A",
        "meta_epoch": "2025-12-13T15:28:37.376256",
        "meta_mean_motion": 14.19905047,
        "meta_eccentricity": 6.347e-05,
        "meta_inclination": 98.6585,
        "meta_ra_of_asc_node": 287.2156,
        "meta_arg_of_pericenter": 94.4957,
        "meta_mean_anomaly": 265.6292,
        "meta_ephemeris_type": 0,
        "meta_classification_type": "U",
        "meta_norad_cat_id": 65815,
        "meta_element_set_no": 999,
        "meta_rev_at_epoch": 1105,
        "meta_bstar": 9.4658984e-05,
        "meta_mean_motion_dot": 1.58e-06,
        "meta_mean_motion_ddot": 0,
        "tle_line1": "1 65815U 25219A   25347.64487704  .00000158  00000+0  94659-4 0  9995",
        "tle_line2": "2 65815  98.6585 287.2156 0000634  94.4957 265.6292 14.19905047 11059"
      },
      "geometry": {
        "type": "Point",
        "coordinates": [
          69.53935818310484,
          -76.22104582438843
        ]
      }
    }
  ]
}